NORAD_CAT_ID,OBJECT_NAME,OBJECT_TYPE,EPOCH,MEAN_MOTION,ECCENTRICITY,INCLINATION,RA_OF_ASC_NODE,ARG_OF_PERICENTER,MEAN_ANOMALY,BSTAR,MEAN_MOTION_DOT,MEAN_MOTION_DDOT,TLE_LINE0,TLE_LINE1,TLE_LINE2,SEMIMAJOR_AXIS,PERIOD,APOGEE,PERIGEE,DECAYED
51808.0,STARLINK-3609,PAYLOAD,2022-06-12 14:00:01,15.08840432,0.0001779,53.2209,351.8023,57.9,93.4653,-4.8795e-05,-1.065e-05,0.0,0 STARLINK-3609,1 51808U 22017AS  22163.58334491 -.00001065  00000-0 -48795-4 0  9996,2 51808  53.2209 351.8023 0001779  57.9000  93.4653 15.08840432 17825,6917.879,95.438,540.975,538.513,0.0
51808.0,STARLINK-3609,PAYLOAD,2022-06-12 22:00:00,15.08820123,0.0001907,53.2205,350.3076,50.9464,112.019,0.002519,0.00040008,0.0,0 STARLINK-3609,1 51808U 22017AS  22163.91667824  .00040008  00000-0  25190-2 0  9992,2 51808  53.2205 350.3076 0001907  50.9464 112.0190 15.08820123  1308,6917.941,95.439,541.125,538.487,0.0
51808.0,STARLINK-3609,PAYLOAD,2022-06-13 14:00:01,15.08841356,0.0001683,53.2203,347.3135,56.9428,129.2076,-0.00027649,-4.686e-05,0.0,0 STARLINK-3609,1 51808U 22017AS  22164.58334491 -.00004686  00000-0 -27649-3 0  9993,2 51808  53.2203 347.3135 0001683  56.9428 129.2076 15.08841356  1309,6917.876,95.437,540.906,538.577,0.0
51808.0,STARLINK-3609,PAYLOAD,2022-06-13 22:00:00,15.08820671,0.0001849,53.22,345.8186,50.3011,147.4481,0.0023377,0.00037093,0.0,0 STARLINK-3609,1 51808U 22017AS  22164.91667824  .00037093  00000-0  23377-2 0  9998,2 51808  53.2200 345.8186 0001849  50.3011 147.4481 15.08820671 18032,6917.939,95.439,541.0840000000002,538.525,0.0
51808.0,STARLINK-3609,PAYLOAD,2022-06-14 14:00:01,15.08846097,0.0001804,53.2198,342.8245,58.9814,161.95,-0.00029338,-4.955e-05,0.0,0 STARLINK-3609,1 51808U 22017AS  22165.58334491 -.00004955  00000-0 -29338-3 0  9990,2 51808  53.2198 342.8245 0001804  58.9814 161.9500 15.08846097 18131,6917.861999999999,95.437,540.975,538.479,0.0
51808.0,STARLINK-3609,PAYLOAD,2022-06-14 22:00:00,15.08826007,0.0001903,53.2198,341.3296,51.5247,181.0011,0.00048153,7.381e-05,0.0,0 STARLINK-3609,1 51808U 22017AS  22165.91667824  .00007381  00000-0  48153-3 0  9996,2 51808  53.2198 341.3296 0001903  51.5247 181.0011 15.08826007  1300,6917.9230000000025,95.438,541.105,538.472,0.0
51808.0,STARLINK-3609,PAYLOAD,2022-06-15 14:00:01,15.08841089,0.0001779,53.2199,338.3355,57.0593,198.62,-0.00072558,-0.00011818,0.0,0 STARLINK-3609,1 51808U 22017AS  22166.58334491 -.00011818  00000-0 -72558-3 0  9999,2 51808  53.2199 338.3355 0001779  57.0593 198.6200 15.08841089 18285,6917.877,95.437,540.9730000000002,538.511,0.0
51808.0,STARLINK-3609,PAYLOAD,2022-06-15 22:00:00,15.08822395,0.0001893,53.22,336.8406,49.5471,217.7355,0.0032003,0.00050989,0.0,0 STARLINK-3609,1 51808U 22017AS  22166.91667824  .00050989  00000-0  32003-2 0  9995,2 51808  53.2200 336.8406 0001893  49.5471 217.7355 15.08822395  1304,6917.934,95.439,541.109,538.49,0.0
51808.0,STARLINK-3609,PAYLOAD,2022-06-16 02:00:01,15.08876558,0.000183,53.2198,336.0915,49.4118,43.6606,-0.003413,-0.00054252,0.0,0 STARLINK-3609,1 51808U 22017AS  22167.08334491 -.00054252  00000-0 -34130-2 0  9997,2 51808  53.2198 336.0915 0001830  49.4118  43.6606 15.08876558  1300,6917.769,95.435,540.9,538.368,0.0
51808.0,STARLINK-3609,PAYLOAD,2022-06-19 14:00:01,15.08863586,0.0001794,53.2211,320.3813,51.8064,342.977,-0.0033916,-0.00053897,0.0,0 STARLINK-3609,1 51808U 22017AS  22170.58334491 -.00053897  00000-0 -33916-2 0  9991,2 51808  53.2211 320.3813 0001794  51.8064 342.9770 15.08863586  1309,6917.808000000001,95.436,540.914,538.432,0.0
51808.0,STARLINK-3609,PAYLOAD,2022-06-19 22:00:00,15.08831967,0.0001875,53.2205,318.8858,46.7528,359.6346,0.0015413,0.00024322,0.0,0 STARLINK-3609,1 51808U 22017AS  22170.91667824  .00024322  00000-0  15413-2 0  9998,2 51808  53.2205 318.8858 0001875  46.7528 359.6346 15.08831967  1303,6917.905,95.438,541.067,538.4730000000002,0.0
51808.0,STARLINK-3609,PAYLOAD,2022-06-20 06:00:00,15.08811243,0.0001629999999999,53.2205,317.3879,52.7532,5.2381,0.0018524,0.00029293,0.0,0 STARLINK-3609,1 51808U 22017AS  22171.25001157  .00029293  00000-0  18524-2 0  9995,2 51808  53.2205 317.3879 0001630  52.7532   5.2381 15.08811243 18981,6917.968000000003,95.439,540.961,538.706,0.0
51808.0,STARLINK-3609,PAYLOAD,2022-06-20 14:00:01,15.08866841,0.0001897,53.2191,315.8909,54.4197,15.158,-0.0084823,-0.00132904,0.0,0 STARLINK-3609,1 51808U 22017AS  22171.58334491 -.00132904  00000-0 -84823-2 0  9992,2 51808  53.2191 315.8909 0001897  54.4197  15.1580 15.08866841  1306,6917.7980000000025,95.436,540.976,538.351,0.0
51808.0,STARLINK-3609,PAYLOAD,2022-06-20 22:00:00,15.08833854,0.0001807,53.2198,314.3971,46.5368,34.6679,0.0015558,0.00024555,0.0,0 STARLINK-3609,1 51808U 22017AS  22171.91667824  .00024555  00000-0  15558-2 0  9997,2 51808  53.2198 314.3971 0001807  46.5368  34.6679 15.08833854  1302,6917.899,95.438,541.014,538.514,0.0
51808.0,STARLINK-3609,PAYLOAD,2022-06-21 12:00:00,15.08841539,0.0001571,53.2192,311.7764,51.1613,320.3028,-0.001047,-0.00016913,0.0,0 STARLINK-3609,1 51808U 22017AS  22172.50001157 -.00016913  00000-0 -10470-2 0  9993,2 51808  53.2192 311.7764 0001571  51.1613 320.3028 15.08841539 19176,6917.876,95.437,540.827,538.654,0.0
51808.0,STARLINK-3609,PAYLOAD,2022-06-21 14:00:01,15.08854823,0.0001652,53.219,311.4028,48.232,56.1271,-0.0037008,-0.0005872999999999,0.0,0 STARLINK-3609,1 51808U 22017AS  22172.58334491 -.00058730  00000-0 -37008-2 0  9990,2 51808  53.2190 311.4028 0001652  48.2320  56.1271 15.08854823  1306,6917.835,95.437,540.8430000000002,538.557,0.0
51808.0,STARLINK-3609,PAYLOAD,2022-06-21 22:00:00,15.08836707,0.0001709,53.2192,309.9083,43.4459,72.5047,0.00099063,0.00015512,0.0,0 STARLINK-3609,1 51808U 22017AS  22172.91667824  .00015512  00000-0  99063-3 0  9995,2 51808  53.2192 309.9083 0001709  43.4459  72.5047 15.08836707  1308,6917.89,95.438,540.938,538.573,0.0
51808.0,STARLINK-3609,PAYLOAD,2022-06-22 06:00:00,15.08822442,0.0001485,53.2192,308.4103,48.8303,78.7258,0.00090917,0.00014204,0.0,0 STARLINK-3609,1 51808U 22017AS  22173.25001157  .00014204  00000-0  90917-3 0  9990,2 51808  53.2192 308.4103 0001485  48.8303  78.7258 15.08822442 19282,6917.934,95.439,540.826,538.7719999999998,0.0
51808.0,STARLINK-3609,PAYLOAD,2022-06-22 14:00:01,15.08838011,0.0001615,53.2193,306.9153,46.0004,93.133,-0.00108,-0.00017434,0.0,0 STARLINK-3609,1 51808U 22017AS  22173.58334491 -.00017434  00000-0 -10800-2 0  9998,2 51808  53.2193 306.9153 0001615  46.0004  93.1330 15.08838011  1309,6917.886,95.438,540.869,538.634,0.0
51808.0,STARLINK-3609,PAYLOAD,2022-06-22 22:00:00,15.08850423,0.0001723,53.219,305.4193,42.3032,108.4141,-0.0016457,-0.00026392,0.0,0 STARLINK-3609,1 51808U 22017AS  22173.91667824 -.00026392  00000-0 -16457-2 0  9991,2 51808  53.2190 305.4193 0001723  42.3032 108.4141 15.08850423  1305,6917.849,95.437,540.905,538.5219999999998,0.0
51808.0,STARLINK-3609,PAYLOAD,2022-06-23 04:00:01,15.08811503,0.0001584,53.2193,304.2955,48.6868,20.8019,0.0012548,0.00019723,0.0,0 STARLINK-3609,1 51808U 22017AS  22174.16668981  .00019723  00000-0  12548-2 0  9999,2 51808  53.2193 304.2955 0001584  48.6868  20.8019 15.08811503 19421,6917.967,95.439,540.928,538.737,0.0
51808.0,STARLINK-3609,PAYLOAD,2022-06-23 14:00:01,15.08814368,0.0001716,53.2182,302.4238,45.2763,128.5985,0.0019875,0.00031463,0.0,0 STARLINK-3609,1 51808U 22017AS  22174.58334491  .00031463  00000-0  19875-2 0  9996,2 51808  53.2182 302.4238 0001716  45.2763 128.5985 15.08814368  1305,6917.959,95.439,541.011,538.637,0.0
51808.0,STARLINK-3609,PAYLOAD,2022-06-23 22:00:00,15.08826673,0.000177,53.2192,300.9302,43.5342,141.9017,-1.1392e-05,-4.69e-06,0.0,0 STARLINK-3609,1 51808U 22017AS  22174.91667824 -.00000469  00000-0 -11392-4 0  9994,2 51808  53.2192 300.9302 0001770  43.5342 141.9017 15.08826673 19547,6917.920999999999,95.438,541.011,538.562,0.0
51808.0,STARLINK-3609,PAYLOAD,2022-06-24 14:00:01,15.08842613,0.0001796,53.2197,297.9375,46.6549,161.9464,-0.0006992,-0.000114,0.0,0 STARLINK-3609,1 51808U 22017AS  22175.58334491 -.00011400  00000-0 -69920-3 0  9995,2 51808  53.2197 297.9375 0001796  46.6549 161.9464 15.08842613  1303,6917.871999999999,95.437,540.98,538.495,0.0
51808.0,STARLINK-3609,PAYLOAD,2022-06-24 22:00:01,15.08852706,0.0001814,53.2197,296.441,44.2301,176.0212,-0.00072126,-0.00011753,0.0,0 STARLINK-3609,1 51808U 22017AS  22175.91668981 -.00011753  00000-0 -72126-3 0  9999,2 51808  53.2197 296.4410 0001814  44.2301 176.0212 15.08852706 19691,6917.842,95.437,540.961,538.452,0.0
51808.0,STARLINK-3609,PAYLOAD,2022-06-25 14:00:01,15.08854095,0.0001783,53.2202,293.4486,44.4925,198.9131,-0.0024708,-0.00039412,0.0,0 STARLINK-3609,1 51808U 22017AS  22176.58334491 -.00039412  00000-0 -24708-2 0  9993,2 51808  53.2202 293.4486 0001783  44.4925 198.9131 15.08854095  1302,6917.837,95.437,540.936,538.469,0.0
51808.0,STARLINK-3609,PAYLOAD,2022-06-25 20:00:01,15.08828623,0.0001802,53.2201,292.3266,40.3434,121.7675,0.0020204,0.00032003,0.0,0 STARLINK-3609,1 51808U 22017AS  22176.83334491  .00032003  00000-0  20204-2 0  9995,2 51808  53.2201 292.3266 0001802  40.3434 121.7675 15.08828623 19828,6917.915,95.438,541.0269999999998,538.534,0.0
51808.0,STARLINK-3609,PAYLOAD,2022-06-25 22:00:00,15.08854335,0.0001749,53.2202,291.9521,41.4932,213.5087,-0.0011068,-0.00017867,0.0,0 STARLINK-3609,1 51808U 22017AS  22176.91667824 -.00017867  00000-0 -11068-2 0  9994,2 51808  53.2202 291.9521 0001749  41.4932 213.5087 15.08854335  1303,6917.837,95.437,540.9119999999998,538.492,0.0
51808.0,STARLINK-3609,PAYLOAD,2022-06-26 12:00:00,15.08843713,0.0001619,53.2207,289.3336,41.7426,143.5205,-0.00094432,-0.00015287,0.0,0 STARLINK-3609,1 51808U 22017AS  22177.50001157 -.00015287  00000-0 -94432-3 0  9992,2 51808  53.2207 289.3336 0001619  41.7426 143.5205 15.08843713 19930,6917.869000000002,95.437,540.854,538.614,0.0
